OBJECT_NAME,OBJECT_ID,EPOCH,MEAN_MOTION,ECCENTRICITY,INCLINATION,RA_OF_ASC_NODE,ARG_OF_PERICENTER,MEAN_ANOMALY,EPHEMERIS_TYPE,CLASSIFICATION_TYPE,NORAD_CAT_ID,ELEMENT_SET_NO,REV_AT_EPOCH,BSTAR,MEAN_MOTION_DOT,MEAN_MOTION_DDOT
STARLINK-37889,2026-133AE,2026-07-08T11:07:17.758272,15.49441411,.00022157,53.1602,216.8181,61.2703,298.8528,0,U,69536,999,538,.11092203E-2,.62025E-3,0
ZHUQUE-2E R/B,2026-128C,2026-07-08T13:03:37.697184,15.64933877,.00664093,54.5272,202.8760,43.0313,317.5886,0,U,69537,999,456,.43520056E-3,.48445E-3,0
2026-134A,2026-134A,2026-07-07T19:22:03.635328,15.09416081,.00154765,97.7002,258.9915,196.2635,163.8099,0,U,69538,999,342,.25954671E-3,.4095E-4,0
2026-134B,2026-134B,2026-07-08T11:13:11.531712,15.09576980,.00156177,97.6980,259.6531,196.1826,163.8906,0,U,69539,999,351,.20715539E-3,.3269E-4,0
2026-134C,2026-134C,2026-07-08T11:12:29.395296,15.09609348,.00150209,97.6986,259.6554,197.2190,162.8531,0,U,69540,999,351,.20829415E-3,.329E-4,0
2026-134D,2026-134D,2026-07-08T03:13:59.262816,15.09664512,.00160655,97.7024,259.3350,198.2646,161.8007,0,U,69541,999,346,.20248044E-3,.3202E-4,0
2026-134E,2026-134E,2026-07-08T11:10:43.632192,15.09688870,.00158092,97.7044,259.6739,197.7185,162.3494,0,U,69542,999,351,.20629961E-3,.3266E-4,0
2026-134F,2026-134F,2026-07-08T03:12:30.186144,15.09732173,.00150457,97.6995,259.3282,200.5306,159.5320,0,U,69543,999,346,.2194744E-3,.3482E-4,0
2026-134G,2026-134G,2026-07-08T11:07:50.655072,15.09819413,.00155381,97.7042,259.6756,200.0976,159.9643,0,U,69544,999,351,.20202644E-3,.3208E-4,0
2026-134H,2026-134H,2026-07-08T11:06:22.723200,15.09886410,.00153589,97.7025,259.6729,201.3612,158.6977,0,U,69545,999,350,.20620148E-3,.3282E-4,0
STARLINK-37880,2026-135A,2026-07-08T12:00:02.000160,15.65286425,.00011155,97.2847,217.6958,103.5354,256.3938,0,U,69546,999,473,-.26064387E-1,-.2235302E-1,0
STARLINK-37881,2026-135B,2026-07-08T12:00:02.000160,15.75000360,.00013172,97.2847,217.7237,97.5384,338.0691,0,U,69547,999,473,-.19779574E-1,-.2501391E-1,0
STARLINK-37265,2026-135C,2026-07-08T13:08:21.347520,15.80938695,.00015128,97.2832,217.7819,74.9224,285.2212,0,U,69548,999,363,.16618785E-2,.33248E-2,0
STARLINK-37871,2026-135D,2026-07-07T00:39:19.257408,15.80865436,.00011017,97.2844,216.1764,119.9823,240.1554,0,U,69549,999,339,.58732992E-3,.114098E-2,0
STARLINK-37865,2026-135E,2026-07-08T12:00:02.000160,15.74659583,.00015672,97.2844,217.7301,81.7977,9.1791,0,U,69550,999,473,-.18608941E-1,-.2345025E-1,0
STARLINK-37862,2026-135F,2026-07-08T05:25:08.609376,15.80784297,.00009425,97.2823,217.4548,20.2212,339.9093,0,U,69551,999,358,.62651599E-4,.11858E-3,0
STARLINK-37861,2026-135G,2026-07-08T12:00:02.000160,15.74986417,.00015276,97.2844,217.7442,72.0786,45.7244,0,U,69552,999,473,-.15463024E-1,-.1978932E-1,0
STARLINK-37859,2026-135H,2026-07-08T11:25:14.195136,15.81370972,.00008312,97.2834,217.7291,211.7460,148.3758,0,U,69553,999,362,-.65784595E-2,-.1155599E-1,0
STARLINK-37860,2026-135J,2026-07-08T05:21:22.846176,15.80383812,.00121329,97.2848,217.4581,312.9181,47.1068,0,U,69554,999,358,.10497581E-2,.202559E-2,0
STARLINK-37858,2026-135K,2026-07-08T12:00:02.000160,15.79309466,.00019911,97.2840,217.7562,97.6836,49.3730,0,U,69555,999,473,-.16245583E-1,-.2494213E-1,0
STARLINK-37927,2026-135L,2026-07-07T00:25:45.770304,15.80866086,.00010848,97.2851,216.1903,58.4844,301.6530,0,U,69556,999,339,.780815E-3,.152409E-2,0
STARLINK-37929,2026-135M,2026-07-08T12:00:02.000160,15.70122623,.00015685,97.2844,217.7413,80.2231,35.4526,0,U,69557,999,473,-.23939074E-1,-.252015E-1,0
STARLINK-37954,2026-135N,2026-07-08T12:00:02.000160,15.70038034,.00017116,97.2846,217.7448,86.1783,35.0743,0,U,69558,999,473,-.23848976E-1,-.2504291E-1,0
STARLINK-37958,2026-135P,2026-07-07T10:57:14.517792,15.81197842,.00008161,97.2854,216.6654,105.5963,254.5396,0,U,69559,999,346,.18839808E-2,.383711E-2,0
STARLINK-37950,2026-135Q,2026-07-08T12:46:58.742112,15.81153404,.00080354,97.2857,217.8048,166.7896,193.3584,0,U,69560,999,363,.11135596E-2,.222467E-2,0
STARLINK-37952,2026-135R,2026-07-08T12:00:02.000160,15.74355331,.0001803,97.2839,217.7645,91.3723,78.0249,0,U,69561,999,473,-.18769189E-1,-.2335872E-1,0
STARLINK-37935,2026-135S,2026-07-08T12:00:02.000160,15.69188728,.00018499,97.2845,217.7540,90.0004,52.4248,0,U,69562,999,473,-.24417146E-1,-.2478704E-1,0
STARLINK-37936,2026-135T,2026-07-08T12:00:02.000160,15.70918995,.00018663,97.2844,217.7750,94.1706,100.0696,0,U,69563,999,473,-.22141175E-1,-.2371989E-1,0
STARLINK-37932,2026-135U,2026-07-08T14:04:08.405760,15.80893645,.00015848,97.2839,217.8870,53.5074,306.6340,0,U,69564,999,364,.14234719E-2,.282538E-2,0
STARLINK-37916,2026-135V,2026-07-07T19:49:39.112032,15.80797450,.00035477,97.2852,217.0805,134.8880,225.2676,0,U,69565,999,352,.16238889E-2,.322456E-2,0
