STARLINK-37889          
1 69536U 26133AE  26189.46339998  .00062025  00000+0  11092-2 0  9990
2 69536  53.1602 216.8181 0002215  61.2703 298.8528 15.49441411  5386
ZHUQUE-2E R/B           
1 69537U 26128C   26189.54418631  .00048445  00000+0  43520-3 0  9998
2 69537  54.5272 202.8760 0066409  43.0313 317.5886 15.64933877  4567
2026-134A               
1 69538U 26134A   26188.80698652  .00004095  00000+0  25955-3 0  9992
2 69538  97.7002 258.9915 0015476 196.2635 163.8099 15.09416081  3422
2026-134B               
1 69539U 26134B   26189.46749458  .00003269  00000+0  20716-3 0  9999
2 69539  97.6980 259.6531 0015617 196.1826 163.8906 15.09576980  3519
2026-134C               
1 69540U 26134C   26189.46700689  .00003290  00000+0  20829-3 0  9993
2 69540  97.6986 259.6554 0015020 197.2190 162.8531 15.09609348  3514
2026-134D               
1 69541U 26134D   26189.13471369  .00003202  00000+0  20248-3 0  9996
2 69541  97.7024 259.3350 0016065 198.2646 161.8007 15.09664512  3462
2026-134E               
1 69542U 26134E   26189.46578278  .00003266  00000+0  20630-3 0  9995
2 69542  97.7044 259.6739 0015809 197.7185 162.3494 15.09688870  3511
2026-134F               
1 69543U 26134F   26189.13368271  .00003482  00000+0  21947-3 0  9992
2 69543  97.6995 259.3282 0015045 200.5306 159.5320 15.09732173  3462
2026-134G               
1 69544U 26134G   26189.46378073  .00003208  00000+0  20203-3 0  9990
2 69544  97.7042 259.6756 0015538 200.0976 159.9643 15.09819413  3512
2026-134H               
1 69545U 26134H   26189.46276300  .00003282  00000+0  20620-3 0  9996
2 69545  97.7025 259.6729 0015358 201.3612 158.6977 15.09886410  3501
STARLINK-37880          
1 69546U 26135A   26189.50002315 -.02235302  00000+0 -26064-1 0  9996
2 69546  97.2847 217.6958 0001115 103.5354 256.3938 15.65286425  4730
STARLINK-37881          
1 69547U 26135B   26189.50002315 -.02501391  00000+0 -19780-1 0  9998
2 69547  97.2847 217.7237 0001317  97.5384 338.0691 15.75000360  4738
STARLINK-37265          
1 69548U 26135C   26189.54746930  .00332480  00000+0  16619-2 0  9997
2 69548  97.2832 217.7819 0001512  74.9224 285.2212 15.80938695  3635
STARLINK-37871          
1 69549U 26135D   26188.02730622  .00114098  00000+0  58733-3 0  9998
2 69549  97.2844 216.1764 0001101 119.9823 240.1554 15.80865436  3394
STARLINK-37865          
1 69550U 26135E   26189.50002315 -.02345025  00000+0 -18609-1 0  9991
2 69550  97.2844 217.7301 0001567  81.7977   9.1791 15.74659583  4734
STARLINK-37862          
1 69551U 26135F   26189.22579409  .00011858  00000+0  62652-4 0  9994
2 69551  97.2823 217.4548 0000942  20.2212 339.9093 15.80784297  3587
STARLINK-37861          
1 69552U 26135G   26189.50002315 -.01978932  00000+0 -15463-1 0  9996
2 69552  97.2844 217.7442 0001527  72.0786  45.7244 15.74986417  4737
STARLINK-37859          
1 69553U 26135H   26189.47585874 -.01155599  00000+0 -65785-2 0  9998
2 69553  97.2834 217.7291 0000831 211.7460 148.3758 15.81370972  3625
STARLINK-37860          
1 69554U 26135J   26189.22318109  .00202559  00000+0  10498-2 0  9994
2 69554  97.2848 217.4581 0012132 312.9181  47.1068 15.80383812  3582
STARLINK-37858          
1 69555U 26135K   26189.50002315 -.02494213  00000+0 -16246-1 0  9995
2 69555  97.2840 217.7562 0001991  97.6836  49.3730 15.79309466  4731
STARLINK-37927          
1 69556U 26135L   26188.01789086  .00152409  00000+0  78081-3 0  9999
2 69556  97.2851 216.1903 0001084  58.4844 301.6530 15.80866086  3394
STARLINK-37929          
1 69557U 26135M   26189.50002315 -.02520150  00000+0 -23939-1 0  9994
2 69557  97.2844 217.7413 0001568  80.2231  35.4526 15.70122623  4737
STARLINK-37954          
1 69558U 26135N   26189.50002315 -.02504291  00000+0 -23849-1 0  9993
2 69558  97.2846 217.7448 0001711  86.1783  35.0743 15.70038034  4734
STARLINK-37958          
1 69559U 26135P   26188.45641803  .00383711  00000+0  18840-2 0  9992
2 69559  97.2854 216.6654 0000816 105.5963 254.5396 15.81197842  3468
STARLINK-37950          
1 69560U 26135Q   26189.53262433  .00222467  00000+0  11136-2 0  9993
2 69560  97.2857 217.8048 0008035 166.7896 193.3584 15.81153404  3632
STARLINK-37952          
1 69561U 26135R   26189.50002315 -.02335872  00000+0 -18769-1 0  9999
2 69561  97.2839 217.7645 0001803  91.3723  78.0249 15.74355331  4737
STARLINK-37935          
1 69562U 26135S   26189.50002315 -.02478704  00000+0 -24417-1 0  9999
2 69562  97.2845 217.7540 0001849  90.0004  52.4248 15.69188728  4730
STARLINK-37936          
1 69563U 26135T   26189.50002315 -.02371989  00000+0 -22141-1 0  9999
2 69563  97.2844 217.7750 0001866  94.1706 100.0696 15.70918995  4732
STARLINK-37932          
1 69564U 26135U   26189.58620840  .00282538  00000+0  14235-2 0  9990
2 69564  97.2839 217.8870 0001584  53.5074 306.6340 15.80893645  3649
STARLINK-37916          
1 69565U 26135V   26188.82614713  .00322456  00000+0  16239-2 0  9999
2 69565  97.2852 217.0805 0003547 134.8880 225.2676 15.80797450  3526
